FLOCK 3P-75             
1 41979U 17008AH  17353.43813971  .00002603  00000-0  11146-3 0  9998
2 41979  97.4767  54.2977 0006820 264.7222  95.3237 15.23678131 46722
FLOCK 3P-70             
1 41980U 17008AJ  17353.43650274  .00002645  00000-0  11324-3 0  9999
2 41980  97.4768  54.3029 0006802 263.9386  96.1076 15.23675683 46578
FLOCK 3P-73             
1 41981U 17008AK  17353.11729938  .00002517  00000-0  10804-3 0  9999
2 41981  97.4770  53.9647 0007055 267.0713  92.9717 15.23633315 46654
FLOCK 3P-88             
1 41982U 17008AL  17353.76182717  .00001614  00000-0  70217-4 0  9991
2 41982  97.4764  54.6234 0006875 263.4757  96.5698 15.23702643 45721
FLOCK 3P-85             
1 41983U 17008AM  17353.41919820  .00003563  00000-0  15127-3 0  9990
2 41983  97.4769  54.3240 0006786 268.9801  91.0659 15.23720150 46576
FLOCK 3P-79             
1 41984U 17008AN  17353.48529994  .00001642  00000-0  71308-4 0  9997
2 41984  97.4768  54.3874 0006450 268.5561  91.4937 15.23747951 46588
FLOCK 3P-86             
1 41985U 17008AP  17353.15816650  .00001775  00000-0  76875-4 0  9991
2 41985  97.4767  54.0533 0006419 269.0056  91.0445 15.23732957 46521
FLOCK 3P-36             
1 41986U 17008AQ  17353.42349386  .00001653  00000-0  71755-4 0  9996
2 41986  97.4751  54.2393 0006198 264.8111  95.2419 15.23752018 46055
FLOCK 3P-30             
1 41987U 17008AR  17353.61162318  .00001564  00000-0  68157-4 0  9999
2 41987  97.4751  54.4481 0006076 265.5137  94.5406 15.23693776 46555
FLOCK 3P-34             
1 41988U 17008AS  17353.42664690  .00001633  00000-0  70935-4 0  9993
2 41988  97.4745  54.2195 0006251 261.6887  98.3641 15.23748579 46053
FLOCK 3P-35             
1 41989U 17008AT  17353.62648546  .00001613  00000-0  70127-4 0  9999
2 41989  97.4744  54.4103 0006423 260.8435  99.2076 15.23726782 46082
FLOCK 3P-33             
1 41990U 17008AU  17353.42447454  .00001503  00000-0  65524-4 0  9997
2 41990  97.4747  54.2270 0006057 263.0329  97.0219 15.23749315 46059
LEMUR-2-SATCHMO         
1 41991U 17008AV  17353.11354442  .00001776  00000-0  78809-4 0  9990
2 41991  97.4738  53.7105 0006253 268.8289  91.2231 15.22883212 45993
LEMUR-2-MIA-GRACE       
1 41992U 17008AW  17353.85545462  .00002620  00000-0  11332-3 0  9992
2 41992  97.4741  54.5683 0006160 265.5238  94.5295 15.23334787 46113
LEMUR-2-SMITA-SHARAD    
1 41993U 17008AX  17353.41989547  .00001725  00000-0  76302-4 0  9995
2 41993  97.4738  54.0691 0006196 267.4038  92.6489 15.23047533 46048
LEMUR-2-SPIRE-MINIONS   
1 41994U 17008AY  17353.60103753  .00002593  00000-0  11233-3 0  9999
2 41994  97.4739  54.2870 0006210 265.4468  94.6060 15.23293109 46075
LEMUR-2-RDEATON         
1 41995U 17008AZ  17353.60991151  .00001742  00000-0  76890-4 0  9993
2 41995  97.4739  54.2785 0007292 283.1985  76.8438 15.23102401 46753
LEMUR-2-NOGUECORREIG    
1 41996U 17008BA  17353.45569211  .00002602  00000-0  11262-3 0  9992
2 41996  97.4745  54.1865 0007163 283.7783  76.2656 15.23309088 45955
LEMUR-2-JOBANPUTRA      
1 41997U 17008BB  17353.82839254  .00002374  00000-0  10264-3 0  9998
2 41997  97.4746  54.6095 0007143 282.0759  77.9677 15.23442106 46108
LEMUR-2-TACHIKOMA       
1 41998U 17008BC  17353.35423604  .00001700  00000-0  75330-4 0  9993
2 41998  97.4738  54.0051 0007214 284.8912  75.1526 15.23000538 45950
BGUSAT                  
1 41999U 17008BD  17353.47499333  .00003052  00000-0  12977-3 0  9998
2 41999  97.4752  54.3320 0007057 284.3342  75.7112 15.23783405 46056
DIDO-2                  
1 42000U 17008BE  17353.83066071  .00001420  00000-0  63781-4 0  9998
2 42000  97.4733  54.4349 0007205 283.8688  76.1747 15.22810282 46101
FLOCK 3P-49             
1 42001U 17008BF  17353.60790234  .00001667  00000-0  72410-4 0  9991
2 42001  97.4748  54.4452 0006734 284.8008  75.2482 15.23710216 46604
FLOCK 3P-67             
1 42002U 17008BG  17353.60979121  .00003612  00000-0  15281-3 0  9990
2 42002  97.4745  54.4365 0006625 283.3286  76.7212 15.23832230 46761
FLOCK 3P-68             
1 42003U 17008BH  17353.41823338  .00002043  00000-0  87943-4 0  9990
2 42003  97.4744  54.2272 0006818 283.1916  76.8560 15.23749976 46376
FLOCK 3P-41             
1 42004U 17008BJ  17353.60330014  .00002037  00000-0  87765-4 0  9991
2 42004  97.4744  54.4334 0006590 284.8305  75.2202 15.23723790 46603
FLOCK 3P-45             
1 42005U 17008BK  17353.73664372  .00003594  00000-0  15205-3 0  9991
2 42005  97.4746  54.5726 0006535 284.2122  75.8388 15.23841195 46771
FLOCK 3P-48             
1 42006U 17008BL  17353.60640666  .00001654  00000-0  71861-4 0  9994
2 42006  97.4750  54.4472 0006493 285.8986  74.1535 15.23723305 46545
FLOCK 3P-43             
1 42007U 17008BM  17353.60558780  .00001139  00000-0  50525-4 0  9992
2 42007  97.4747  54.4365 0006404 285.6085  74.4445 15.23646885 46767
FLOCK 3P-42             
1 42008U 17008BN  17353.60477369  .00005225  00000-0  22063-3 0  9991
2 42008  97.4743  54.4311 0006441 285.3329  74.7196 15.23688843 46681
FLOCK 3P-61             
1 42009U 17008BP  17353.60363089  .00004696  00000-0  19870-3 0  9998
2 42009  97.4746  54.4389 0006325 288.3531  71.7018 15.23672940 46736
FLOCK 3P-40             
1 42010U 17008BQ  17353.59732494  .00003663  00000-0  15577-3 0  9991
2 42010  97.4739  54.4251 0006294 289.3025  70.7531 15.23653442 45994
FLOCK 3P-16             
1 42011U 17008BR  17353.45409928  .00005027  00000-0  21277-3 0  9990
2 42011  97.4740  54.3135 0005941 291.1600  68.9001 15.23632397 45914
FLOCK 3P-14             
1 42012U 17008BS  17353.45535713  .00002945  00000-0  12548-3 0  9990
2 42012  97.4749  54.3280 0006172 292.5120  67.5463 15.23745871 46532
FLOCK 3P-53             
1 42013U 17008BT  17353.72125927  .00001706  00000-0  73970-4 0  9994
2 42013  97.4735  54.5523 0006009 290.2766  69.7825 15.23731418 46572
FLOCK 3P-54             
1 42014U 17008BU  17353.65777664  .00004977  00000-0  21080-3 0  9995
2 42014  97.4743  54.5019 0005919 291.3276  68.7329 15.23610687 46739
PEASSS                  
1 42015U 17008BV  17353.57103681  .00001645  00000-0  71853-4 0  9992
2 42015  97.4727  54.4350 0005158 296.5153  63.5554 15.23536455 46569
AL-FARABI 1             
1 42016U 17008BW  17353.60547661  .00002329  00000-0  99608-4 0  9995
2 42016  97.4732  54.5550 0005013 296.6761  63.3962 15.23836754 46695
NAYIF-1 (EO-88)         
1 42017U 17008BX  17353.60229148  .00002337  00000-0  99876-4 0  9999
2 42017  97.4731  54.5564 0004996 297.2067  62.8661 15.23855766 46712
FLOCK 3P-23             
1 42018U 17008BY  17353.85365428  .00005560  00000-0  23494-3 0  9992
2 42018  97.4736  54.5357 0007183 257.1244 102.9190 15.23631876 45560
FLOCK 3P-76             
1 42019U 17008BZ  17353.16485923  .00002001  00000-0  86288-4 0  9998
2 42019  97.4770  54.0597 0006852 268.0369  92.0083 15.23727213 46529
FLOCK 3P-69             
1 42020U 17008CA  17353.16346116  .00001769  00000-0  76588-4 0  9992
2 42020  97.4770  54.0608 0006708 266.6181  93.4288 15.23738569 45415
FLOCK 3P-84             
1 42021U 17008CB  17353.10767790  .00006025  00000-0  25388-3 0  9993
2 42021  97.4765  53.9652 0007070 266.2030  93.8398 15.23688968 46525
FLOCK 3P-59             
1 42022U 17008CC  17353.83005693  .00003621  00000-0  15348-3 0  9995
2 42022  97.4743  54.6018 0006512 263.5006  96.5490 15.23770571 45657
FLOCK 3P-32             
1 42023U 17008CD  17353.17731147  .00002042  00000-0  88146-4 0  9996
2 42023  97.4746  53.9447 0006524 261.9642  98.0854 15.23660166 46694
FLOCK 3P-71             
1 42024U 17008CE  17353.85155389  .00004160  00000-0  17644-3 0  9997
2 42024  97.4768  54.6803 0006857 265.1203  94.9251 15.23656293 45669
FLOCK 3P-77             
1 42025U 17008CF  17353.16599084  .00001781  00000-0  77138-4 0  9997
2 42025  97.4767  54.0476 0006771 268.3187  91.7274 15.23722252 46536
FLOCK 3P-80             
1 42026U 17008CG  17353.60928688  .00004438  00000-0  18719-3 0  9994
2 42026  97.4767  54.5232 0006357 266.4329  93.6181 15.23811828 44746
FLOCK 3P-66             
1 42027U 17008CH  17353.48300302  .00001713  00000-0  74285-4 0  9992
2 42027  97.4749  54.3058 0006806 281.7228  78.3245 15.23726846 46690
FLOCK 3P-65             
1 42028U 17008CJ  17353.34977262  .00001496  00000-0  65238-4 0  9999
2 42028  97.4748  54.1769 0006655 282.9304  77.1190 15.23741554 46573
FLOCK 3P-50             
1 42029U 17008CK  17353.60894216  .00001708  00000-0  74073-4 0  9999
2 42029  97.4751  54.4519 0006503 284.7376  75.3140 15.23735680 45932
FLOCK 3P-52             
1 42030U 17008CL  17353.61078471  .00001699  00000-0  73775-4 0  9996
2 42030  97.4747  54.4361 0006591 283.5819  76.4684 15.23701015 46706
FLOCK 3P-46             
1 42031U 17008CM  17353.73695351  .00001492  00000-0  65124-4 0  9992
2 42031  97.4743  54.5653 0006512 284.2689  75.7824 15.23714152 46753
FLOCK 3P-47             
1 42032U 17008CN  17353.60731870  .00001686  00000-0  73218-4 0  9994
2 42032  97.4743  54.4308 0006482 285.7511  74.3011 15.23708748 46584
FLOCK 3P-44             
1 42033U 17008CP  17353.79843609  .00001092  00000-0  48574-4 0  9997
2 42033  97.4747  54.6443 0006512 287.7161  72.3365 15.23628183 45367
FLOCK 3P-64             
1 42034U 17008CQ  17353.60167508  .00005370  00000-0  22682-3 0  9999
2 42034  97.4744  54.4322 0006353 288.0485  72.0059 15.23666398 46756
FLOCK 3P-63             
1 42035U 17008CR  17353.73022212  .00001627  00000-0  70904-4 0  9998
2 42035  97.4741  54.5609 0006356 287.3801  72.6741 15.23636171 44747
FLOCK 3P-62             
1 42036U 17008CS  17353.44794573  .00003799  00000-0  16018-3 0  9990
2 42036  97.4743  54.3323 0006400 290.6653  69.3898 15.23915966 45900
FLOCK 3P-38             
1 42037U 17008CT  17353.59765273  .00004595  00000-0  19475-3 0  9997
2 42037  97.4743  54.4340 0006126 289.5022  70.5553 15.23631927 46706
